{
  "type": "FeatureCollection",
  "features": [
    {
      "type": "Feature",
      "properties": {
        "norad_id": 58647,
        "name": "TIANMU-1 13",
        "group": "weather",
        "lat": 30.063261850845127,
        "lon": -173.114507459708,
        "alt_km": 493.9659485043512,
        "timestamp": "2025-12-08T21:31:04.318769+00:00",
        "meta_object_name": "TIANMU-1 13",
        "meta_object_id": "2023-205C",
        "meta_epoch": "2025-12-08T14:33:43.308864",
        "meta_mean_motion": 15.24446173,
        "meta_eccentricity": 0.00060837,
        "meta_inclination": 97.3622,
        "meta_ra_of_asc_node": 2.3087,
        "meta_arg_of_pericenter": 286.1939,
        "meta_mean_anomaly": 73.8629,
        "meta_ephemeris_type": 0,
        "meta_classification_type": "U",
        "meta_norad_cat_id": 58647,
        "meta_element_set_no": 999,
        "meta_rev_at_epoch": 10844,
        "meta_bstar": 0.00038932238,
        "meta_mean_motion_dot": 9.493e-05,
        "meta_mean_motion_ddot": 0,
        "tle_line1": "1 58647U 23205C   25342.60675126  .00009493  00000+0  38932-3 0  9993",
        "tle_line2": "2 58647  97.3622   2.3087 0006083 286.1939  73.8629 15.24446173108445"
      },
      "geometry": {
        "type": "Point",
        "coordinates": [
          -173.114507459708,
          30.063261850845127
        ]
      }
    },
    {
      "type": "Feature",
      "properties": {
        "norad_id": 58648,
        "name": "TIANMU-1 14",
        "group": "weather",
        "lat": -60.04763149088559,
        "lon": 168.99155169946647,
        "alt_km": 496.5507247238038,
        "timestamp": "2025-12-08T21:31:04.318779+00:00",
        "meta_object_name": "TIANMU-1 14",
        "meta_object_id": "2023-205D",
        "meta_epoch": "2025-12-08T14:09:45.072000",
        "meta_mean_motion": 15.24430099,
        "meta_eccentricity": 0.00069586,
        "meta_inclination": 97.3554,
        "meta_ra_of_asc_node": 1.6448,
        "meta_arg_of_pericenter": 291.3643,
        "meta_mean_anomaly": 68.6851,
        "meta_ephemeris_type": 0,
        "meta_classification_type": "U",
        "meta_norad_cat_id": 58648,
        "meta_element_set_no": 999,
        "meta_rev_at_epoch": 10844,
        "meta_bstar": 0.00037363014,
        "meta_mean_motion_dot": 9.104e-05,
        "meta_mean_motion_ddot": 0,
        "tle_line1": "1 58648U 23205D   25342.59010500  .00009104  00000+0  37363-3 0  9997",
        "tle_line2": "2 58648  97.3554   1.6448 0006958 291.3643  68.6851 15.24430099108443"
      },
      "geometry": {
        "type": "Point",
        "coordinates": [
          168.99155169946647,
          -60.04763149088559
        ]
      }
    },
    {
      "type": "Feature",
      "properties": {
        "norad_id": 58660,
        "name": "TIANMU-1 19",
        "group": "weather",
        "lat": 82.55395576603807,
        "lon": 5.127855587262848,
        "alt_km": 477.87184236926987,
        "timestamp": "2025-12-08T21:31:04.318792+00:00",
        "meta_object_name": "TIANMU-1 19",
        "meta_object_id": "2023-208A",
        "meta_epoch": "2025-12-08T13:15:57.870432",
        "meta_mean_motion": 15.27731799,
        "meta_eccentricity": 0.00040384,
        "meta_inclination": 97.4393,
        "meta_ra_of_asc_node": 93.5987,
        "meta_arg_of_pericenter": 271.7925,
        "meta_mean_anomaly": 88.2851,
        "meta_ephemeris_type": 0,
        "meta_classification_type": "U",
        "meta_norad_cat_id": 58660,
        "meta_element_set_no": 999,
        "meta_rev_at_epoch": 10818,
        "meta_bstar": 0.00045280372,
        "meta_mean_motion_dot": 0.00012204,
        "meta_mean_motion_ddot": 0,
        "tle_line1": "1 58660U 23208A   25342.55275313  .00012204  00000+0  45280-3 0  9997",
        "tle_line2": "2 58660  97.4393  93.5987 0004038 271.7925  88.2851 15.27731799108182"
      },
      "geometry": {
        "type": "Point",
        "coordinates": [
          5.127855587262848,
          82.55395576603807
        ]
      }
    },
    {
      "type": "Feature",
      "properties": {
        "norad_id": 58661,
        "name": "TIANMU-1 20",
        "group": "weather",
        "lat": 32.01674283414368,
        "lon": -80.93196925235064,
        "alt_km": 480.304020118022,
        "timestamp": "2025-12-08T21:31:04.318802+00:00",
        "meta_object_name": "TIANMU-1 20",
        "meta_object_id": "2023-208B",
        "meta_epoch": "2025-12-08T13:01:12.953856",
        "meta_mean_motion": 15.28922942,
        "meta_eccentricity": 0.00063457,
        "meta_inclination": 97.433,
        "meta_ra_of_asc_node": 94.032,
        "meta_arg_of_pericenter": 283.6322,
        "meta_mean_anomaly": 76.4211,
        "meta_ephemeris_type": 0,
        "meta_classification_type": "U",
        "meta_norad_cat_id": 58661,
        "meta_element_set_no": 999,
        "meta_rev_at_epoch": 10825,
        "meta_bstar": 0.00045129422,
        "meta_mean_motion_dot": 0.00012619,
        "meta_mean_motion_ddot": 0,
        "tle_line1": "1 58661U 23208B   25342.54251104  .00012619  00000+0  45129-3 0  9991",
        "tle_line2": "2 58661  97.4330  94.0320 0006345 283.6322  76.4211 15.28922942108257"
      },
      "geometry": {
        "type": "Point",
        "coordinates": [
          -80.93196925235064,
          32.01674283414368
        ]
      }
    },
    {
      "type": "Feature",
      "properties": {
        "norad_id": 58662,
        "name": "TIANMU-1 21",
        "group": "weather",
        "lat": 61.27779653666626,
        "lon": -69.93100878998013,
        "alt_km": 469.42948983307815,
        "timestamp": "2025-12-08T21:31:04.318812+00:00",
        "meta_object_name": "TIANMU-1 21",
        "meta_object_id": "2023-208C",
        "meta_epoch": "2025-12-08T13:09:50.661792",
        "meta_mean_motion": 15.31413315,
        "meta_eccentricity": 0.00059206,
        "meta_inclination": 97.4378,
        "meta_ra_of_asc_node": 95.9277,
        "meta_arg_of_pericenter": 278.0977,
        "meta_mean_anomaly": 81.9592,
        "meta_ephemeris_type": 0,
        "meta_classification_type": "U",
        "meta_norad_cat_id": 58662,
        "meta_element_set_no": 999,
        "meta_rev_at_epoch": 10835,
        "meta_bstar": 0.0004886317,
        "meta_mean_motion_dot": 0.00014765,
        "meta_mean_motion_ddot": 0,
        "tle_line1": "1 58662U 23208C   25342.54850303  .00014765  00000+0  48863-3 0  9990",
        "tle_line2": "2 58662  97.4378  95.9277 0005920 278.0977  81.9592 15.31413315108350"
      },
      "geometry": {
        "type": "Point",
        "coordinates": [
          -69.93100878998013,
          61.27779653666626
        ]
      }
    },
    {
      "type": "Feature",
      "properties": {
        "norad_id": 58663,
        "name": "TIANMU-1 22",
        "group": "weather",
        "lat": 81.35170811490126,
        "lon": -26.791557690152157,
        "alt_km": 477.49059592395406,
        "timestamp": "2025-12-08T21:31:04.318823+00:00",
        "meta_object_name": "TIANMU-1 22",
        "meta_object_id": "2023-208D",
        "meta_epoch": "2025-12-08T14:49:02.106336",
        "meta_mean_motion": 15.27496213,
        "meta_eccentricity": 0.00028187,
        "meta_inclination": 97.4386,
        "meta_ra_of_asc_node": 93.7241,
        "meta_arg_of_pericenter": 307.509,
        "meta_mean_anomaly": 52.5892,
        "meta_ephemeris_type": 0,
        "meta_classification_type": "U",
        "meta_norad_cat_id": 58663,
        "meta_element_set_no": 999,
        "meta_rev_at_epoch": 10820,
        "meta_bstar": 0.0004358935,
        "meta_mean_motion_dot": 0.00011659,
        "meta_mean_motion_ddot": 0,
        "tle_line1": "1 58663U 23208D   25342.61738549  .00011659  00000+0  43589-3 0  9995",
        "tle_line2": "2 58663  97.4386  93.7241 0002818 307.5090  52.5892 15.27496213108208"
      },
      "geometry": {
        "type": "Point",
        "coordinates": [
          -26.791557690152157,
          81.35170811490126
        ]
      }
    },
    {
      "type": "Feature",
      "properties": {
        "norad_id": 58700,
        "name": "TIANMU-1 15",
        "group": "weather",
        "lat": -80.43517720232563,
        "lon": -66.69107715982486,
        "alt_km": 496.9906720807239,
        "timestamp": "2025-12-08T21:31:04.318833+00:00",
        "meta_object_name": "TIANMU-1 15",
        "meta_object_id": "2024-004A",
        "meta_epoch": "2025-12-08T14:03:43.649568",
        "meta_mean_motion": 15.24595501,
        "meta_eccentricity": 0.00053913,
        "meta_inclination": 97.4629,
        "meta_ra_of_asc_node": 164.0708,
        "meta_arg_of_pericenter": 315.6672,
        "meta_mean_anomaly": 44.4133,
        "meta_ephemeris_type": 0,
        "meta_classification_type": "U",
        "meta_norad_cat_id": 58700,
        "meta_element_set_no": 999,
        "meta_rev_at_epoch": 10671,
        "meta_bstar": 0.00041614124,
        "meta_mean_motion_dot": 0.00010196,
        "meta_mean_motion_ddot": 0,
        "tle_line1": "1 58700U 24004A   25342.58592187  .00010196  00000+0  41614-3 0  9996",
        "tle_line2": "2 58700  97.4629 164.0708 0005391 315.6672  44.4133 15.24595501106714"
      },
      "geometry": {
        "type": "Point",
        "coordinates": [
          -66.69107715982486,
          -80.43517720232563
        ]
      }
    }
  ]
}